HULIANWANG DIGUI-01     
1 62323U 24240A   26061.85309657  .00000018  00000+0  89305-5 0  9994
2 62323  86.5025  19.0862 0001926  86.6390 273.4964 13.24420333 58564
HULIANWANG DIGUI-02     
1 62324U 24240B   26061.86056070  .00000014  00000+0 -14424-5 0  9991
2 62324  86.5054  19.2130 0001843  90.2426 269.8919 13.24421925 58574
HULIANWANG DIGUI-03     
1 62325U 24240C   26061.84542815  .00000042  00000+0  63395-4 0  9997
2 62325  86.5008  19.0087 0002011  85.6008 274.5356 13.24421948 58567
HULIANWANG DIGUI-04     
1 62326U 24240D   26061.83790604  .00000049  00000+0  79426-4 0  9997
2 62326  86.5017  19.0427 0002050  86.3345 273.8024 13.24421613 58564
HULIANWANG DIGUI-05     
1 62327U 24240E   26061.83039824  .00000059  00000+0  10285-3 0  9996
2 62327  86.5068  19.2635 0002085  85.4203 274.7169 13.24420814 58567
HULIANWANG DIGUI-06     
1 62328U 24240F   26061.81519218  .00000048  00000+0  76947-4 0  9991
2 62328  86.5006  18.9890 0002013  89.9103 270.2261 13.24422688 58563
HULIANWANG DIGUI-07     
1 62329U 24240G   26061.80773073  .00000046  00000+0  72640-4 0  9996
2 62329  86.4977  18.8604 0001992  88.1061 272.0301 13.24420844 58568
HULIANWANG DIGUI-08     
1 62330U 24240H   26061.82285999  .00000054  00000+0  90949-4 0  9996
2 62330  86.5059  19.2237 0002119  86.9229 273.2148 13.24420698 58562
HULIANWANG DIGUI-09     
1 62331U 24240J   26061.80010649  .00000034  00000+0  45626-4 0  9993
2 62331  86.5026  19.1273 0001944  90.0949 270.0407 13.24422089 58554
HULIANWANG DIGUI-10     
1 62332U 24240K   26061.79259094  .00000021  00000+0  14999-4 0  9996
2 62332  86.5056  19.2516 0001937  92.2349 267.9007 13.24421479 58552
HULIANWANG DIGUI-11     
1 62971U 25030A   26061.78123501 -.00000079  00000+0  96809-4 0  9999
2 62971  49.9993 257.4774 0000757 160.3817 199.7084 13.29337614 51701
HULIANWANG DIGUI-12     
1 62972U 25030B   26061.78947969 -.00000084  00000+0  87268-4 0  9997
2 62972  50.0009 257.5666 0000873 154.1131 205.9785 13.29339761 51706
HULIANWANG DIGUI-13     
1 62973U 25030C   26061.77284958 -.00000097  00000+0  58171-4 0  9994
2 62973  50.0012 257.4918 0000706 146.0822 214.0095 13.29337676 51700
HULIANWANG DIGUI-14     
1 62974U 25030D   26061.74784823 -.00000089  00000+0  76094-4 0  9993
2 62974  50.0017 257.3795 0000792 145.6442 214.4481 13.29337414 51709
HULIANWANG DIGUI-15     
1 62975U 25030E   26061.76453151 -.00000093  00000+0  67322-4 0  9992
2 62975  50.0012 257.4510 0000691 153.2338 206.8570 13.29337609 51708
HULIANWANG DIGUI-16     
1 62976U 25030F   26061.73944574 -.00000072  00000+0  11109-3 0  9992
2 62976  50.0035 257.3884 0000801 143.4931 216.5996 13.29338228 51708
