[{"OBJECT_NAME":"HULIANWANG DIGUI-01","OBJECT_ID":"2024-240A","EPOCH":"2026-03-02T20:28:27.543648","MEAN_MOTION":13.24420333,"ECCENTRICITY":0.0001926,"INCLINATION":86.5025,"RA_OF_ASC_NODE":19.0862,"ARG_OF_PERICENTER":86.639,"MEAN_ANOMALY":273.4964,"EPHEMERIS_TYPE":0,"CLASSIFICATION_TYPE":"U","NORAD_CAT_ID":62323,"ELEMENT_SET_NO":999,"REV_AT_EPOCH":5856,"BSTAR":8.9305e-6,"MEAN_MOTION_DOT":1.8e-7,"MEAN_MOTION_DDOT":0},{"OBJECT_NAME":"HULIANWANG DIGUI-02","OBJECT_ID":"2024-240B","EPOCH":"2026-03-02T20:39:12.444480","MEAN_MOTION":13.24421925,"ECCENTRICITY":0.0001843,"INCLINATION":86.5054,"RA_OF_ASC_NODE":19.213,"ARG_OF_PERICENTER":90.2426,"MEAN_ANOMALY":269.8919,"EPHEMERIS_TYPE":0,"CLASSIFICATION_TYPE":"U","NORAD_CAT_ID":62324,"ELEMENT_SET_NO":999,"REV_AT_EPOCH":5857,"BSTAR":-1.4424e-6,"MEAN_MOTION_DOT":1.4e-7,"MEAN_MOTION_DDOT":0},{"OBJECT_NAME":"HULIANWANG DIGUI-03","OBJECT_ID":"2024-240C","EPOCH":"2026-03-02T20:17:24.992160","MEAN_MOTION":13.24421948,"ECCENTRICITY":0.0002011,"INCLINATION":86.5008,"RA_OF_ASC_NODE":19.0087,"ARG_OF_PERICENTER":85.6008,"MEAN_ANOMALY":274.5356,"EPHEMERIS_TYPE":0,"CLASSIFICATION_TYPE":"U","NORAD_CAT_ID":62325,"ELEMENT_SET_NO":999,"REV_AT_EPOCH":5856,"BSTAR":6.3395e-5,"MEAN_MOTION_DOT":4.2e-7,"MEAN_MOTION_DDOT":0},{"OBJECT_NAME":"HULIANWANG DIGUI-04","OBJECT_ID":"2024-240D","EPOCH":"2026-03-02T20:06:35.081856","MEAN_MOTION":13.24421613,"ECCENTRICITY":0.000205,"INCLINATION":86.5017,"RA_OF_ASC_NODE":19.0427,"ARG_OF_PERICENTER":86.3345,"MEAN_ANOMALY":273.8024,"EPHEMERIS_TYPE":0,"CLASSIFICATION_TYPE":"U","NORAD_CAT_ID":62326,"ELEMENT_SET_NO":999,"REV_AT_EPOCH":5856,"BSTAR":7.9426e-5,"MEAN_MOTION_DOT":4.9e-7,"MEAN_MOTION_DDOT":0},{"OBJECT_NAME":"HULIANWANG DIGUI-05","OBJECT_ID":"2024-240E","EPOCH":"2026-03-02T19:55:46.407936","MEAN_MOTION":13.24420814,"ECCENTRICITY":0.0002085,"INCLINATION":86.5068,"RA_OF_ASC_NODE":19.2635,"ARG_OF_PERICENTER":85.4203,"MEAN_ANOMALY":274.7169,"EPHEMERIS_TYPE":0,"CLASSIFICATION_TYPE":"U","NORAD_CAT_ID":62327,"ELEMENT_SET_NO":999,"REV_AT_EPOCH":5856,"BSTAR":0.00010285,"MEAN_MOTION_DOT":5.9e-7,"MEAN_MOTION_DDOT":0},{"OBJECT_NAME":"HULIANWANG DIGUI-06","OBJECT_ID":"2024-240F","EPOCH":"2026-03-02T19:33:52.604352","MEAN_MOTION":13.24422688,"ECCENTRICITY":0.0002013,"INCLINATION":86.5006,"RA_OF_ASC_NODE":18.989,"ARG_OF_PERICENTER":89.9103,"MEAN_ANOMALY":270.2261,"EPHEMERIS_TYPE":0,"CLASSIFICATION_TYPE":"U","NORAD_CAT_ID":62328,"ELEMENT_SET_NO":999,"REV_AT_EPOCH":5856,"BSTAR":7.6947e-5,"MEAN_MOTION_DOT":4.8e-7,"MEAN_MOTION_DDOT":0},{"OBJECT_NAME":"HULIANWANG DIGUI-07","OBJECT_ID":"2024-240G","EPOCH":"2026-03-02T19:23:07.935072","MEAN_MOTION":13.24420844,"ECCENTRICITY":0.0001992,"INCLINATION":86.4977,"RA_OF_ASC_NODE":18.8604,"ARG_OF_PERICENTER":88.1061,"MEAN_ANOMALY":272.0301,"EPHEMERIS_TYPE":0,"CLASSIFICATION_TYPE":"U","NORAD_CAT_ID":62329,"ELEMENT_SET_NO":999,"REV_AT_EPOCH":5856,"BSTAR":7.264e-5,"MEAN_MOTION_DOT":4.6e-7,"MEAN_MOTION_DDOT":0},{"OBJECT_NAME":"HULIANWANG DIGUI-08","OBJECT_ID":"2024-240H","EPOCH":"2026-03-02T19:44:55.103136","MEAN_MOTION":13.24420698,"ECCENTRICITY":0.0002119,"INCLINATION":86.5059,"RA_OF_ASC_NODE":19.2237,"ARG_OF_PERICENTER":86.9229,"MEAN_ANOMALY":273.2148,"EPHEMERIS_TYPE":0,"CLASSIFICATION_TYPE":"U","NORAD_CAT_ID":62330,"ELEMENT_SET_NO":999,"REV_AT_EPOCH":5856,"BSTAR":9.0949e-5,"MEAN_MOTION_DOT":5.4e-7,"MEAN_MOTION_DDOT":0},{"OBJECT_NAME":"HULIANWANG DIGUI-09","OBJECT_ID":"2024-240J","EPOCH":"2026-03-02T19:12:09.200736","MEAN_MOTION":13.24422089,"ECCENTRICITY":0.0001944,"INCLINATION":86.5026,"RA_OF_ASC_NODE":19.1273,"ARG_OF_PERICENTER":90.0949,"MEAN_ANOMALY":270.0407,"EPHEMERIS_TYPE":0,"CLASSIFICATION_TYPE":"U","NORAD_CAT_ID":62331,"ELEMENT_SET_NO":999,"REV_AT_EPOCH":5855,"BSTAR":4.5626e-5,"MEAN_MOTION_DOT":3.4e-7,"MEAN_MOTION_DDOT":0},{"OBJECT_NAME":"HULIANWANG DIGUI-10","OBJECT_ID":"2024-240K","EPOCH":"2026-03-02T19:01:19.857216","MEAN_MOTION":13.24421479,"ECCENTRICITY":0.0001937,"INCLINATION":86.5056,"RA_OF_ASC_NODE":19.2516,"ARG_OF_PERICENTER":92.2349,"MEAN_ANOMALY":267.9007,"EPHEMERIS_TYPE":0,"CLASSIFICATION_TYPE":"U","NORAD_CAT_ID":62332,"ELEMENT_SET_NO":999,"REV_AT_EPOCH":5855,"BSTAR":1.4999e-5,"MEAN_MOTION_DOT":2.1e-7,"MEAN_MOTION_DDOT":0},{"OBJECT_NAME":"HULIANWANG DIGUI-11","OBJECT_ID":"2025-030A","EPOCH":"2026-03-02T18:44:58.704864","MEAN_MOTION":13.29337614,"ECCENTRICITY":7.57e-5,"INCLINATION":49.9993,"RA_OF_ASC_NODE":257.4774,"ARG_OF_PERICENTER":160.3817,"MEAN_ANOMALY":199.7084,"EPHEMERIS_TYPE":0,"CLASSIFICATION_TYPE":"U","NORAD_CAT_ID":62971,"ELEMENT_SET_NO":999,"REV_AT_EPOCH":5170,"BSTAR":9.6809e-5,"MEAN_MOTION_DOT":-7.9e-7,"MEAN_MOTION_DDOT":0},{"OBJECT_NAME":"HULIANWANG DIGUI-12","OBJECT_ID":"2025-030B","EPOCH":"2026-03-02T18:56:51.045216","MEAN_MOTION":13.29339761,"ECCENTRICITY":8.73e-5,"INCLINATION":50.0009,"RA_OF_ASC_NODE":257.5666,"ARG_OF_PERICENTER":154.1131,"MEAN_ANOMALY":205.9785,"EPHEMERIS_TYPE":0,"CLASSIFICATION_TYPE":"U","NORAD_CAT_ID":62972,"ELEMENT_SET_NO":999,"REV_AT_EPOCH":5170,"BSTAR":8.7268e-5,"MEAN_MOTION_DOT":-8.4e-7,"MEAN_MOTION_DDOT":0},{"OBJECT_NAME":"HULIANWANG DIGUI-13","OBJECT_ID":"2025-030C","EPOCH":"2026-03-02T18:32:54.203712","MEAN_MOTION":13.29337676,"ECCENTRICITY":7.06e-5,"INCLINATION":50.0012,"RA_OF_ASC_NODE":257.4918,"ARG_OF_PERICENTER":146.0822,"MEAN_ANOMALY":214.0095,"EPHEMERIS_TYPE":0,"CLASSIFICATION_TYPE":"U","NORAD_CAT_ID":62973,"ELEMENT_SET_NO":999,"REV_AT_EPOCH":5170,"BSTAR":5.8171e-5,"MEAN_MOTION_DOT":-9.7e-7,"MEAN_MOTION_DDOT":0},{"OBJECT_NAME":"HULIANWANG DIGUI-14","OBJECT_ID":"2025-030D","EPOCH":"2026-03-02T17:56:54.087072","MEAN_MOTION":13.29337414,"ECCENTRICITY":7.92e-5,"INCLINATION":50.0017,"RA_OF_ASC_NODE":257.3795,"ARG_OF_PERICENTER":145.6442,"MEAN_ANOMALY":214.4481,"EPHEMERIS_TYPE":0,"CLASSIFICATION_TYPE":"U","NORAD_CAT_ID":62974,"ELEMENT_SET_NO":999,"REV_AT_EPOCH":5170,"BSTAR":7.6094e-5,"MEAN_MOTION_DOT":-8.9e-7,"MEAN_MOTION_DDOT":0},{"OBJECT_NAME":"HULIANWANG DIGUI-15","OBJECT_ID":"2025-030E","EPOCH":"2026-03-02T18:20:55.522464","MEAN_MOTION":13.29337609,"ECCENTRICITY":6.91e-5,"INCLINATION":50.0012,"RA_OF_ASC_NODE":257.451,"ARG_OF_PERICENTER":153.2338,"MEAN_ANOMALY":206.857,"EPHEMERIS_TYPE":0,"CLASSIFICATION_TYPE":"U","NORAD_CAT_ID":62975,"ELEMENT_SET_NO":999,"REV_AT_EPOCH":5170,"BSTAR":6.7322e-5,"MEAN_MOTION_DOT":-9.3e-7,"MEAN_MOTION_DDOT":0},{"OBJECT_NAME":"HULIANWANG DIGUI-16","OBJECT_ID":"2025-030F","EPOCH":"2026-03-02T17:44:48.111936","MEAN_MOTION":13.29338228,"ECCENTRICITY":8.01e-5,"INCLINATION":50.0035,"RA_OF_ASC_NODE":257.3884,"ARG_OF_PERICENTER":143.4931,"MEAN_ANOMALY":216.5996,"EPHEMERIS_TYPE":0,"CLASSIFICATION_TYPE":"U","NORAD_CAT_ID":62976,"ELEMENT_SET_NO":999,"REV_AT_EPOCH":5170,"BSTAR":0.00011109,"MEAN_MOTION_DOT":-7.2e-7,"MEAN_MOTION_DDOT":0}]
